{
    "links": {
        "self": "http://www.neowsapp.com/rest/v1/neo/3872624?api_key=iIulBulltgU6a56xZRHN4H3l9WmuAYTsLGpBGhQ2"
    },
    "id": "3872624",
    "neo_reference_id": "3872624",
    "name": "(2019 SN7)",
    "designation": "2019 SN7",
    "nasa_jpl_url": "http://ssd.jpl.nasa.gov/sbdb.cgi?sstr=3872624",
    "absolute_magnitude_h": 25.4,
    "estimated_diameter": {
        "kilometers": {
            "estimated_diameter_min": 0.022108281,
            "estimated_diameter_max": 0.0494356193
        },
        "meters": {
            "estimated_diameter_min": 22.1082810359,
            "estimated_diameter_max": 49.435619262
        },
        "miles": {
            "estimated_diameter_min": 0.0137374447,
            "estimated_diameter_max": 0.0307178602
        },
        "feet": {
            "estimated_diameter_min": 72.5337327539,
            "estimated_diameter_max": 162.1903570994
        }
    },
    "is_potentially_hazardous_asteroid": false,
    "close_approach_data": [
        {
            "close_approach_date": "2019-09-04",
            "close_approach_date_full": "2019-Sep-04 04:54",
            "epoch_date_close_approach": 1567572840000,
            "relative_velocity": {
                "kilometers_per_second": "8.0179362698",
                "kilometers_per_hour": "28864.5705714263",
                "miles_per_hour": "17935.3216420065"
            },
            "miss_distance": {
                "astronomical": "0.0126022139",
                "lunar": "4.9022612071",
                "kilometers": "1885264.356724393",
                "miles": "1171448.9504589034"
            },
            "orbiting_body": "Earth"
        }
    ],
    "orbital_data": {
        "orbit_id": "2",
        "orbit_determination_date": "2019-11-10 04:59:30",
        "first_observation_date": "2019-09-24",
        "last_observation_date": "2019-11-03",
        "data_arc_in_days": 40,
        "observations_used": 12,
        "orbit_uncertainty": "8",
        "minimum_orbit_intersection": ".00299017",
        "jupiter_tisserand_invariant": "3.890",
        "epoch_osculation": "2458752.5",
        "eccentricity": ".4707329843494927",
        "semi_major_axis": "1.829797880671142",
        "inclination": ".6403238766494125",
        "ascending_node_longitude": "149.4725103604519",
        "orbital_period": "904.0721838444996",
        "perihelion_distance": ".9684516635464385",
        "perihelion_argument": "166.7839580746694",
        "aphelion_distance": "2.691144097795846",
        "perihelion_time": "2458710.082177257136",
        "mean_anomaly": "16.89070459229785",
        "mean_motion": ".3981982926066001",
        "equinox": "J2000",
        "orbit_class": {
            "orbit_class_type": "APO",
            "orbit_class_description": "Near-Earth asteroid orbits which cross the Earth’s orbit similar to that of 1862 Apollo",
            "orbit_class_range": "a (semi-major axis) > 1.0 AU; q (perihelion) < 1.017 AU"
        }
    },
    "is_sentry_object": false
}